{
  "type": "FeatureCollection",
  "features": [
    {
      "type": "Feature",
      "properties": {
        "norad_id": 31319,
        "name": "FENGYUN 1C DEB",
        "group": "fengyun-1c-debris",
        "lat": 30.764921815531515,
        "lon": 83.11140615507328,
        "alt_km": 989.8047287783584,
        "timestamp": "2025-12-25T22:42:17.293234+00:00",
        "meta_object_name": "FENGYUN 1C DEB",
        "meta_object_id": "1999-025BPX",
        "meta_epoch": "2025-12-25T12:23:06.552384",
        "meta_mean_motion": 13.75833917,
        "meta_eccentricity": 0.017059,
        "meta_inclination": 98.831,
        "meta_ra_of_asc_node": 257.4028,
        "meta_arg_of_pericenter": 53.0248,
        "meta_mean_anomaly": 125.1909,
        "meta_ephemeris_type": 0,
        "meta_classification_type": "U",
        "meta_norad_cat_id": 31319,
        "meta_element_set_no": 999,
        "meta_rev_at_epoch": 93863,
        "meta_bstar": 0.00021521,
        "meta_mean_motion_dot": 1.93e-06,
        "meta_mean_motion_ddot": 0,
        "tle_line1": "1 31319U 99025BPX 25359.51604806  .00000193  00000+0  21521-3 0  9992",
        "tle_line2": "2 31319  98.8310 257.4028 0170590  53.0248 125.1909 13.75833917938633"
      },
      "geometry": {
        "type": "Point",
        "coordinates": [
          83.11140615507328,
          30.764921815531515
        ]
      }
    },
    {
      "type": "Feature",
      "properties": {
        "norad_id": 31321,
        "name": "FENGYUN 1C DEB",
        "group": "fengyun-1c-debris",
        "lat": 78.48873614573915,
        "lon": 29.505635491177856,
        "alt_km": 827.2869048519415,
        "timestamp": "2025-12-25T22:42:17.293261+00:00",
        "meta_object_name": "FENGYUN 1C DEB",
        "meta_object_id": "1999-025BPZ",
        "meta_epoch": "2025-12-21T11:18:43.092576",
        "meta_mean_motion": 14.13827699,
        "meta_eccentricity": 0.00303049,
        "meta_inclination": 98.7333,
        "meta_ra_of_asc_node": 74.1401,
        "meta_arg_of_pericenter": 153.2037,
        "meta_mean_anomaly": 207.0709,
        "meta_ephemeris_type": 0,
        "meta_classification_type": "U",
        "meta_norad_cat_id": 31321,
        "meta_element_set_no": 999,
        "meta_rev_at_epoch": 57507,
        "meta_bstar": 0.00012257196,
        "meta_mean_motion_dot": 1.9e-06,
        "meta_mean_motion_ddot": 0,
        "tle_line1": "1 31321U 99025BPZ 25355.47133209  .00000190  00000+0  12257-3 0  9993",
        "tle_line2": "2 31321  98.7333  74.1401 0030304 153.2037 207.0709 14.13827699575072"
      },
      "geometry": {
        "type": "Point",
        "coordinates": [
          29.505635491177856,
          78.48873614573915
        ]
      }
    },
    {
      "type": "Feature",
      "properties": {
        "norad_id": 31322,
        "name": "FENGYUN 1C DEB",
        "group": "fengyun-1c-debris",
        "lat": -19.37883874661685,
        "lon": 65.39925011714398,
        "alt_km": 819.2934592898227,
        "timestamp": "2025-12-25T22:42:17.293275+00:00",
        "meta_object_name": "FENGYUN 1C DEB",
        "meta_object_id": "1999-025BQA",
        "meta_epoch": "2025-12-25T10:38:41.423136",
        "meta_mean_motion": 13.73002665,
        "meta_eccentricity": 0.0237967,
        "meta_inclination": 98.5719,
        "meta_ra_of_asc_node": 61.9077,
        "meta_arg_of_pericenter": 336.1945,
        "meta_mean_anomaly": 41.6385,
        "meta_ephemeris_type": 0,
        "meta_classification_type": "U",
        "meta_norad_cat_id": 31322,
        "meta_element_set_no": 999,
        "meta_rev_at_epoch": 62450,
        "meta_bstar": 0.00021153,
        "meta_mean_motion_dot": 2e-06,
        "meta_mean_motion_ddot": 0,
        "tle_line1": "1 31322U 99025BQA 25359.44353499  .00000200  00000+0  21153-3 0  9997",
        "tle_line2": "2 31322  98.5719  61.9077 0237967 336.1945  41.6385 13.73002665624504"
      },
      "geometry": {
        "type": "Point",
        "coordinates": [
          65.39925011714398,
          -19.37883874661685
        ]
      }
    },
    {
      "type": "Feature",
      "properties": {
        "norad_id": 31323,
        "name": "FENGYUN 1C DEB",
        "group": "fengyun-1c-debris",
        "lat": -27.68804133407485,
        "lon": 44.433114867397656,
        "alt_km": 797.6754062524078,
        "timestamp": "2025-12-25T22:42:17.293286+00:00",
        "meta_object_name": "FENGYUN 1C DEB",
        "meta_object_id": "1999-025BQB",
        "meta_epoch": "2025-12-20T21:43:51.769056",
        "meta_mean_motion": 14.27642156,
        "meta_eccentricity": 0.0030892,
        "meta_inclination": 99.4195,
        "meta_ra_of_asc_node": 34.0071,
        "meta_arg_of_pericenter": 56.5612,
        "meta_mean_anomaly": 303.8513,
        "meta_ephemeris_type": 0,
        "meta_classification_type": "U",
        "meta_norad_cat_id": 31323,
        "meta_element_set_no": 999,
        "meta_rev_at_epoch": 64097,
        "meta_bstar": 0.0010025,
        "meta_mean_motion_dot": 2.433e-05,
        "meta_mean_motion_ddot": 0,
        "tle_line1": "1 31323U 99025BQB 25354.90546029  .00002433  00000+0  10025-2 0  9992",
        "tle_line2": "2 31323  99.4195  34.0071 0030892  56.5612 303.8513 14.27642156640970"
      },
      "geometry": {
        "type": "Point",
        "coordinates": [
          44.433114867397656,
          -27.68804133407485
        ]
      }
    },
    {
      "type": "Feature",
      "properties": {
        "norad_id": 31324,
        "name": "FENGYUN 1C DEB",
        "group": "fengyun-1c-debris",
        "lat": -6.575119968460415,
        "lon": 100.64694840844885,
        "alt_km": 840.7914522150586,
        "timestamp": "2025-12-25T22:42:17.293296+00:00",
        "meta_object_name": "FENGYUN 1C DEB",
        "meta_object_id": "1999-025BQC",
        "meta_epoch": "2025-12-21T14:16:42.684672",
        "meta_mean_motion": 14.14700279,
        "meta_eccentricity": 0.0048997,
        "meta_inclination": 99.1242,
        "meta_ra_of_asc_node": 277.2633,
        "meta_arg_of_pericenter": 278.9209,
        "meta_mean_anomaly": 80.6419,
        "meta_ephemeris_type": 0,
        "meta_classification_type": "U",
        "meta_norad_cat_id": 31324,
        "meta_element_set_no": 999,
        "meta_rev_at_epoch": 96611,
        "meta_bstar": 0.00014071,
        "meta_mean_motion_dot": 2.27e-06,
        "meta_mean_motion_ddot": 0,
        "tle_line1": "1 31324U 99025BQC 25355.59493848  .00000227  00000+0  14071-3 0  9994",
        "tle_line2": "2 31324  99.1242 277.2633 0048997 278.9209  80.6419 14.14700279966112"
      },
      "geometry": {
        "type": "Point",
        "coordinates": [
          100.64694840844885,
          -6.575119968460415
        ]
      }
    },
    {
      "type": "Feature",
      "properties": {
        "norad_id": 31325,
        "name": "FENGYUN 1C DEB",
        "group": "fengyun-1c-debris",
        "lat": -24.55254552137105,
        "lon": -89.90082702962461,
        "alt_km": 792.5147039302574,
        "timestamp": "2025-12-25T22:42:17.293306+00:00",
        "meta_object_name": "FENGYUN 1C DEB",
        "meta_object_id": "1999-025BQD",
        "meta_epoch": "2025-12-23T23:59:08.872800",
        "meta_mean_motion": 14.16974364,
        "meta_eccentricity": 0.00722678,
        "meta_inclination": 98.9921,
        "meta_ra_of_asc_node": 92.2798,
        "meta_arg_of_pericenter": 188.6721,
        "meta_mean_anomaly": 171.3209,
        "meta_ephemeris_type": 0,
        "meta_classification_type": "U",
        "meta_norad_cat_id": 31325,
        "meta_element_set_no": 999,
        "meta_rev_at_epoch": 59937,
        "meta_bstar": 0.0020925352,
        "meta_mean_motion_dot": 4.268e-05,
        "meta_mean_motion_ddot": 0,
        "tle_line1": "1 31325U 99025BQD 25357.99940825  .00004268  00000+0  20925-2 0  9996",
        "tle_line2": "2 31325  98.9921  92.2798 0072267 188.6721 171.3209 14.16974364599379"
      },
      "geometry": {
        "type": "Point",
        "coordinates": [
          -89.90082702962461,
          -24.55254552137105
        ]
      }
    },
    {
      "type": "Feature",
      "properties": {
        "norad_id": 31326,
        "name": "FENGYUN 1C DEB",
        "group": "fengyun-1c-debris",
        "lat": 3.6759402599436113,
        "lon": 64.52633288993685,
        "alt_km": 571.9927195264772,
        "timestamp": "2025-12-25T22:42:17.293316+00:00",
        "meta_object_name": "FENGYUN 1C DEB",
        "meta_object_id": "1999-025BQE",
        "meta_epoch": "2025-12-15T15:32:28.923936",
        "meta_mean_motion": 15.00424804,
        "meta_eccentricity": 0.00131933,
        "meta_inclination": 98.9962,
        "meta_ra_of_asc_node": 232.0333,
        "meta_arg_of_pericenter": 356.0949,
        "meta_mean_anomaly": 4.0165,
        "meta_ephemeris_type": 0,
        "meta_classification_type": "U",
        "meta_norad_cat_id": 31326,
        "meta_element_set_no": 999,
        "meta_rev_at_epoch": 73789,
        "meta_bstar": 0.0045407433,
        "meta_mean_motion_dot": 0.00057569,
        "meta_mean_motion_ddot": 0,
        "tle_line1": "1 31326U 99025BQE 25349.64755699  .00057569  00000+0  45407-2 0  9997",
        "tle_line2": "2 31326  98.9962 232.0333 0013193 356.0949   4.0165 15.00424804737897"
      },
      "geometry": {
        "type": "Point",
        "coordinates": [
          64.52633288993685,
          3.6759402599436113
        ]
      }
    }
  ]
}